start=new Date('2023-06-16T00:00:00.000Z').valueOf();
sats=[{"MEAN_ELEMENT_THEORY":"SGP4","MEAN_ANOMALY":"244.5706","FILE":"3934071","EPOCH":"2023-06-15T19:14:00.617856","DECAY_DATE":null,"LAUNCH_DATE":"2021-03-14","RCS_SIZE":"LARGE","MEAN_MOTION_DDOT":"0.0000000000000","NORAD_CAT_ID":"47870","COUNTRY_CODE":"US","REF_FRAME":"TEME","TLE_LINE1":"1 47870U 21021L   23166.80139604  .00021297  00000-0  14443-2 0  9990","TIME_SYSTEM":"UTC","PERIAPSIS":"546.445","REV_AT_EPOCH":"12547","ELEMENT_SET_NO":"999","ARG_OF_PERICENTER":"115.5398","OBJECT_NAME":"STARLINK-2326","ECCENTRICITY":"0.00011100","CLASSIFICATION_TYPE":"U","GP_ID":"234019065","OBJECT_ID":"2021-021L","MEAN_MOTION_DOT":"0.00021297","INCLINATION":"53.0543","PERIOD":"95.592","RA_OF_ASC_NODE":"86.3113","MEAN_MOTION":"15.06400108","EPHEMERIS_TYPE":"0","TLE_LINE2":"2 47870  53.0543  86.3113 0001110 115.5398 244.5706 15.06400108125477","SEMIMAJOR_AXIS":"6925.348","BSTAR":"0.00144430000000","OBJECT_TYPE":"PAYLOAD","SITE":"AFETR","CENTER_NAME":"EARTH","APOAPSIS":"547.982"},{"MEAN_ELEMENT_THEORY":"SGP4","MEAN_ANOMALY":"277.5012","DECAY_DATE":null,"LAUNCH_DATE":"2021-03-14","EPOCH":"2023-06-15T17:07:18.865056","FILE":"3934071","NORAD_CAT_ID":"47871","MEAN_MOTION_DDOT":"0.0000000000000","RCS_SIZE":"LARGE","COUNTRY_CODE":"US","REF_FRAME":"TEME","TIME_SYSTEM":"UTC","TLE_LINE1":"1 47871U 21021M   23166.71341279  .00013280  00000-0  90871-3 0  9997","PERIAPSIS":"546.086","REV_AT_EPOCH":"12591","ELEMENT_SET_NO":"999","ARG_OF_PERICENTER":"82.6160","CLASSIFICATION_TYPE":"U","ECCENTRICITY":"0.00016180","OBJECT_NAME":"STARLINK-2327","OBJECT_ID":"2021-021M","GP_ID":"234019315","PERIOD":"95.592","MEAN_MOTION_DOT":"0.00013280","INCLINATION":"53.0564","EPHEMERIS_TYPE":"0","TLE_LINE2":"2 47871  53.0564  61.7122 0001618  82.6160 277.5012 15.06402355125913","RA_OF_ASC_NODE":"61.7122","MEAN_MOTION":"15.06402355","OBJECT_TYPE":"PAYLOAD","BSTAR":"0.00090871000000","SEMIMAJOR_AXIS":"6925.341","APOAPSIS":"548.327","CENTER_NAME":"EARTH","SITE":"AFETR"},{"CLASSIFICATION_TYPE":"U","ECCENTRICITY":"0.00019600","OBJECT_NAME":"STARLINK-2329","OBJECT_ID":"2021-021P","GP_ID":"233987596","PERIOD":"95.592","MEAN_MOTION_DOT":"0.00012414","INCLINATION":"53.0555","TLE_LINE2":"2 47873  53.0555  64.4733 0001960  82.0967 278.0244 15.06398625125818","EPHEMERIS_TYPE":"0","RA_OF_ASC_NODE":"64.4733","MEAN_MOTION":"15.06398625","OBJECT_TYPE":"PAYLOAD","BSTAR":"0.00085087000000","SEMIMAJOR_AXIS":"6925.353","CENTER_NAME":"EARTH","APOAPSIS":"548.575","SITE":"AFETR","MEAN_ELEMENT_THEORY":"SGP4","MEAN_ANOMALY":"278.0244","DECAY_DATE":null,"LAUNCH_DATE":"2021-03-14","EPOCH":"2023-06-15T02:20:55.207680","FILE":"3933820","NORAD_CAT_ID":"47873","RCS_SIZE":"LARGE","MEAN_MOTION_DDOT":"0.0000000000000","COUNTRY_CODE":"US","REF_FRAME":"TEME","TIME_SYSTEM":"UTC","TLE_LINE1":"1 47873U 21021P   23166.09786120  .00012414  00000-0  85087-3 0  9999","PERIAPSIS":"545.860","REV_AT_EPOCH":"12581","ELEMENT_SET_NO":"999","ARG_OF_PERICENTER":"82.0967"},{"ARG_OF_PERICENTER":"81.8880","ELEMENT_SET_NO":"999","REV_AT_EPOCH":"12652","PERIAPSIS":"546.784","TIME_SYSTEM":"UTC","TLE_LINE1":"1 47874U 21021Q   23166.57195986  .00012931  00000-0  88539-3 0  9996","REF_FRAME":"TEME","COUNTRY_CODE":"US","NORAD_CAT_ID":"47874","MEAN_MOTION_DDOT":"0.0000000000000","RCS_SIZE":"LARGE","LAUNCH_DATE":"2021-03-14","DECAY_DATE":null,"EPOCH":"2023-06-15T13:43:37.331904","FILE":"3933820","MEAN_ANOMALY":"278.2179","MEAN_ELEMENT_THEORY":"SGP4","CENTER_NAME":"EARTH","APOAPSIS":"547.647","SITE":"AFETR","BSTAR":"0.00088539000000","OBJECT_TYPE":"PAYLOAD","SEMIMAJOR_AXIS":"6925.351","EPHEMERIS_TYPE":"0","TLE_LINE2":"2 47874  53.0552  17.3570 0000623  81.8880 278.2179 15.06399280126524","MEAN_MOTION":"15.06399280","RA_OF_ASC_NODE":"17.3570","PERIOD":"95.592","INCLINATION":"53.0552","MEAN_MOTION_DOT":"0.00012931","OBJECT_ID":"2021-021Q","GP_ID":"233986344","CLASSIFICATION_TYPE":"U","ECCENTRICITY":"0.00006230","OBJECT_NAME":"STARLINK-2330"},{"MEAN_MOTION":"15.06412492","RA_OF_ASC_NODE":"71.5298","TLE_LINE2":"2 47875  53.0558  71.5298 0000944  96.7465 263.3632 15.06412492125833","EPHEMERIS_TYPE":"0","SEMIMAJOR_AXIS":"6925.310","OBJECT_TYPE":"PAYLOAD","BSTAR":"0.00108850000000","SITE":"AFETR","APOAPSIS":"547.829","CENTER_NAME":"EARTH","OBJECT_NAME":"STARLINK-2331","ECCENTRICITY":"0.00009440","CLASSIFICATION_TYPE":"U","GP_ID":"234018566","OBJECT_ID":"2021-021R","INCLINATION":"53.0558","MEAN_MOTION_DOT":"0.00015974","PERIOD":"95.591","REF_FRAME":"TEME","TLE_LINE1":"1 47875U 21021R   23166.75302752  .00015974  00000-0  10885-2 0  9996","TIME_SYSTEM":"UTC","REV_AT_EPOCH":"12583","PERIAPSIS":"546.522","ARG_OF_PERICENTER":"96.7465","ELEMENT_SET_NO":"999","MEAN_ELEMENT_THEORY":"SGP4","MEAN_ANOMALY":"263.3632","FILE":"3934071","EPOCH":"2023-06-15T18:04:21.577728","DECAY_DATE":null,"LAUNCH_DATE":"2021-03-14","MEAN_MOTION_DDOT":"0.0000000000000","RCS_SIZE":"LARGE","NORAD_CAT_ID":"47875","COUNTRY_CODE":"US"},{"FILE":"3933969","EPOCH":"2023-06-15T03:28:35.381280","DECAY_DATE":null,"LAUNCH_DATE":"2021-03-14","MEAN_ANOMALY":"270.0894","MEAN_ELEMENT_THEORY":"SGP4","COUNTRY_CODE":"US","MEAN_MOTION_DDOT":"0.0000000000000","RCS_SIZE":"LARGE","NORAD_CAT_ID":"47876","TLE_LINE1":"1 47876U 21021S   23166.14485395  .00007940  00000-0  55134-3 0  9996","TIME_SYSTEM":"UTC","REF_FRAME":"TEME","ELEMENT_SET_NO":"999","ARG_OF_PERICENTER":"90.0240","PERIAPSIS":"546.346","REV_AT_EPOCH":"12521","OBJECT_NAME":"STARLINK-2332","ECCENTRICITY":"0.00012650","CLASSIFICATION_TYPE":"U","MEAN_MOTION_DOT":"0.00007940","INCLINATION":"53.0549","PERIOD":"95.592","GP_ID":"233995973","OBJECT_ID":"2021-021S","SEMIMAJOR_AXIS":"6925.357","OBJECT_TYPE":"PAYLOAD","BSTAR":"0.00055134000000","RA_OF_ASC_NODE":"74.2650","MEAN_MOTION":"15.06397207","TLE_LINE2":"2 47876  53.0549  74.2650 0001265  90.0240 270.0894 15.06397207125214","EPHEMERIS_TYPE":"0","SITE":"AFETR","CENTER_NAME":"EARTH","APOAPSIS":"548.098"},{"GP_ID":"234019565","OBJECT_ID":"2021-021T","MEAN_MOTION_DOT":"0.00017953","INCLINATION":"53.0556","PERIOD":"95.591","OBJECT_NAME":"STARLINK-2333","ECCENTRICITY":"0.00012380","CLASSIFICATION_TYPE":"U","SITE":"AFETR","CENTER_NAME":"EARTH","APOAPSIS":"548.024","RA_OF_ASC_NODE":"71.5088","MEAN_MOTION":"15.06415146","EPHEMERIS_TYPE":"0","TLE_LINE2":"2 47877  53.0556  71.5088 0001238  99.5716 260.5413 15.06415146125775","SEMIMAJOR_AXIS":"6925.302","OBJECT_TYPE":"PAYLOAD","BSTAR":"0.00122060000000","RCS_SIZE":"LARGE","MEAN_MOTION_DDOT":"0.0000000000000","NORAD_CAT_ID":"47877","COUNTRY_CODE":"US","MEAN_ANOMALY":"260.5413","MEAN_ELEMENT_THEORY":"SGP4","EPOCH":"2023-06-15T18:09:40.184640","FILE":"3934071","LAUNCH_DATE":"2021-03-14","DECAY_DATE":null,"PERIAPSIS":"546.310","REV_AT_EPOCH":"12577","ELEMENT_SET_NO":"999","ARG_OF_PERICENTER":"99.5716","REF_FRAME":"TEME","TLE_LINE1":"1 47877U 21021T   23166.75671510  .00017953  00000-0  12206-2 0  9997","TIME_SYSTEM":"UTC"},{"SEMIMAJOR_AXIS":"6925.383","BSTAR":"0.00050608000000","OBJECT_TYPE":"PAYLOAD","RA_OF_ASC_NODE":"74.1431","MEAN_MOTION":"15.06388845","EPHEMERIS_TYPE":"0","TLE_LINE2":"2 47878  53.0554  74.1431 0001385  92.5836 267.5311 15.06388845125223","SITE":"AFETR","APOAPSIS":"548.207","CENTER_NAME":"EARTH","ECCENTRICITY":"0.00013850","OBJECT_NAME":"STARLINK-2335","CLASSIFICATION_TYPE":"U","INCLINATION":"53.0554","MEAN_MOTION_DOT":"0.00007262","PERIOD":"95.593","GP_ID":"233995971","OBJECT_ID":"2021-021U","TLE_LINE1":"1 47878U 21021U   23166.17064763  .00007262  00000-0  50608-3 0  9991","TIME_SYSTEM":"UTC","REF_FRAME":"TEME","ELEMENT_SET_NO":"999","ARG_OF_PERICENTER":"92.5836","PERIAPSIS":"546.289","REV_AT_EPOCH":"12522","FILE":"3933969","EPOCH":"2023-06-15T04:05:43.955232","DECAY_DATE":null,"LAUNCH_DATE":"2021-03-14","MEAN_ANOMALY":"267.5311","MEAN_ELEMENT_THEORY":"SGP4","COUNTRY_CODE":"US","MEAN_MOTION_DDOT":"0.0000000000000","RCS_SIZE":"LARGE","NORAD_CAT_ID":"47878"},{"TIME_SYSTEM":"UTC","TLE_LINE1":"1 47879U 21021V   23166.76454703  .00010094  00000-0  69577-3 0  9996","REF_FRAME":"TEME","ARG_OF_PERICENTER":"104.2717","ELEMENT_SET_NO":"999","REV_AT_EPOCH":"12574","PERIAPSIS":"546.549","LAUNCH_DATE":"2021-03-14","DECAY_DATE":null,"EPOCH":"2023-06-15T18:20:56.863392","FILE":"3934071","MEAN_ANOMALY":"255.8384","MEAN_ELEMENT_THEORY":"SGP4","COUNTRY_CODE":"US","NORAD_CAT_ID":"47879","MEAN_MOTION_DDOT":"0.0000000000000","RCS_SIZE":"LARGE","OBJECT_TYPE":"PAYLOAD","BSTAR":"0.00069577000000","SEMIMAJOR_AXIS":"6925.378","TLE_LINE2":"2 47879  53.0539  86.4740 0001002 104.2717 255.8384 15.06390310125748","EPHEMERIS_TYPE":"0","MEAN_MOTION":"15.06390310","RA_OF_ASC_NODE":"86.4740","APOAPSIS":"547.937","CENTER_NAME":"EARTH","SITE":"AFETR","CLASSIFICATION_TYPE":"U","ECCENTRICITY":"0.00010020","OBJECT_NAME":"STARLINK-2336","PERIOD":"95.593","MEAN_MOTION_DOT":"0.00010094","INCLINATION":"53.0539","OBJECT_ID":"2021-021V","GP_ID":"234019066"},{"BSTAR":"0.00039344000000","OBJECT_TYPE":"PAYLOAD","SEMIMAJOR_AXIS":"6925.367","EPHEMERIS_TYPE":"0","TLE_LINE2":"2 47880  53.0546  83.9791 0001241 108.7124 251.4000 15.06394046125558","MEAN_MOTION":"15.06394046","RA_OF_ASC_NODE":"83.9791","APOAPSIS":"548.091","CENTER_NAME":"EARTH","SITE":"AFETR","CLASSIFICATION_TYPE":"U","OBJECT_NAME":"STARLINK-2337","ECCENTRICITY":"0.00012410","PERIOD":"95.593","MEAN_MOTION_DOT":"0.00005583","INCLINATION":"53.0546","OBJECT_ID":"2021-021W","GP_ID":"233986846","TIME_SYSTEM":"UTC","TLE_LINE1":"1 47880U 21021W   23166.20658474  .00005583  00000-0  39344-3 0  9994","REF_FRAME":"TEME","ARG_OF_PERICENTER":"108.7124","ELEMENT_SET_NO":"999","REV_AT_EPOCH":"12555","PERIAPSIS":"546.372","DECAY_DATE":null,"LAUNCH_DATE":"2021-03-14","EPOCH":"2023-06-15T04:57:28.921536","FILE":"3933820","MEAN_ANOMALY":"251.4000","MEAN_ELEMENT_THEORY":"SGP4","COUNTRY_CODE":"US","NORAD_CAT_ID":"47880","RCS_SIZE":"LARGE","MEAN_MOTION_DDOT":"0.0000000000000"}];
